{
    "links": {
        "self": "http://www.neowsapp.com/rest/v1/neo/3467181?api_key=iIulBulltgU6a56xZRHN4H3l9WmuAYTsLGpBGhQ2"
    },
    "id": "3467181",
    "neo_reference_id": "3467181",
    "name": "(2009 SG)",
    "designation": "2009 SG",
    "nasa_jpl_url": "http://ssd.jpl.nasa.gov/sbdb.cgi?sstr=3467181",
    "absolute_magnitude_h": 19.6,
    "estimated_diameter": {
        "kilometers": {
            "estimated_diameter_min": 0.3195618867,
            "estimated_diameter_max": 0.7145621017
        },
        "meters": {
            "estimated_diameter_min": 319.5618867213,
            "estimated_diameter_max": 714.5621017269
        },
        "miles": {
            "estimated_diameter_min": 0.1985664891,
            "estimated_diameter_max": 0.4440081677
        },
        "feet": {
            "estimated_diameter_min": 1048.4314204307,
            "estimated_diameter_max": 2344.3639258298
        }
    },
    "is_potentially_hazardous_asteroid": false,
    "close_approach_data": [
        {
            "close_approach_date": "2009-09-29",
            "close_approach_date_full": "2009-Sep-29 04:32",
            "epoch_date_close_approach": 1254198720000,
            "relative_velocity": {
                "kilometers_per_second": "21.6648812452",
                "kilometers_per_hour": "77993.5724828507",
                "miles_per_hour": "48462.1728574691"
            },
            "miss_distance": {
                "astronomical": "0.2433105682",
                "lunar": "94.6478110298",
                "kilometers": "36398742.751209734",
                "miles": "22617129.9753489692"
            },
            "orbiting_body": "Earth"
        }
    ],
    "orbital_data": {
        "orbit_id": "23",
        "orbit_determination_date": "2017-04-06 09:00:04",
        "first_observation_date": "2009-09-16",
        "last_observation_date": "2009-10-19",
        "data_arc_in_days": 33,
        "observations_used": 111,
        "orbit_uncertainty": "7",
        "minimum_orbit_intersection": ".245037",
        "jupiter_tisserand_invariant": "3.069",
        "epoch_osculation": "2459000.5",
        "eccentricity": ".511667123802681",
        "semi_major_axis": "2.396305517395367",
        "inclination": "39.69275745130815",
        "ascending_node_longitude": "1.110706373067125",
        "orbital_period": "1354.913931865288",
        "perihelion_distance": "1.170194765557184",
        "perihelion_argument": "38.26054430489917",
        "aphelion_distance": "3.62241626923355",
        "perihelion_time": "2459200.439611828530",
        "mean_anomaly": "306.8761383542794",
        "mean_motion": ".2656995337736279",
        "equinox": "J2000",
        "orbit_class": {
            "orbit_class_type": "AMO",
            "orbit_class_description": "Near-Earth asteroid orbits similar to that of 1221 Amor",
            "orbit_class_range": "1.017 AU < q (perihelion) < 1.3 AU"
        }
    },
    "is_sentry_object": false
}